$$SOE
2459580.500000000, A.D. 2022-Jan-01 00:00:00.0000, 2.034743645144005E+08, 3.363464168325848E+08, 6.771017466737628E+05,
2459587.500000000, A.D. 2022-Jan-08 00:00:00.0000, 1.936194570237000E+08, 3.431234181921357E+08, 6.270792007212341E+05,
2459594.500000000, A.D. 2022-Jan-15 00:00:00.0000, 1.836108310762030E+08, 3.496280364608234E+08, 5.765589134074301E+05,
2459601.500000000, A.D. 2022-Jan-22 00:00:00.0000, 1.734574565509904E+08, 3.558570561331550E+08, 5.255838543959409E+05,
2459608.500000000, A.D. 2022-Jan-29 00:00:00.0000, 1.631683445145435E+08, 3.618076317677180E+08, 4.741970086075217E+05,
2459615.500000000, A.D. 2022-Feb-05 00:00:00.0000, 1.527525264207340E+08, 3.674772838827195E+08, 4.224414421026558E+05,
2459622.500000000, A.D. 2022-Feb-12 00:00:00.0000, 1.422190360598267E+08, 3.728638927042978E+08, 3.703600865661204E+05,
2459629.500000000, A.D. 2022-Feb-19 00:00:00.0000, 1.315768930008974E+08, 3.779656922055745E+08, 3.179955572085083E+05,
2459636.500000000, A.D. 2022-Feb-26 00:00:00.0000, 1.208350862737919E+08, 3.827812637848129E+08, 2.653900653228462E+05,
2459643.500000000, A.D. 2022-Mar-05 00:00:00.0000, 1.100025584992943E+08, 3.873095290421252E+08, 2.125853605122566E+05,
2459650.500000000, A.D. 2022-Mar-12 00:00:00.0000, 9.908819073134024E+07, 3.915497416679046E+08, 1.596226767685115E+05,
2459657.500000000, A.D. 2022-Mar-19 00:00:00.0000, 8.810078811655773E+07, 3.955014785508831E+08, 1.065426779902279E+05,
2459664.500000000, A.D. 2022-Mar-26 00:00:00.0000, 7.704906641994452E+07, 3.991646301798189E+08, 5.338540018963814E+04,
2459671.500000000, A.D. 2022-Apr-02 00:00:00.0000, 6.594163950325378E+07, 4.025393903622583E+08, 1.901793952584267E+02,
2459678.500000000, A.D. 2022-Apr-09 00:00:00.0000, 5.478700803952238E+07, 4.056262453434149E+08, -5.300445949134231E+04,
2459685.500000000, A.D. 2022-Apr-16 00:00:00.0000, 4.359354982557970E+07, 4.084259630565542E+08, -1.061609324195385E+05,
2459692.500000000, A.D. 2022-Apr-23 00:00:00.0000, 3.236951042374163E+07, 4.109395836641586E+08, -1.592425399390161E+05,
2459699.500000000, A.D. 2022-Apr-30 00:00:00.0000, 2.112299225678161E+07, 4.131684092117125E+08, -2.122132371281683E+05,
2459706.500000000, A.D. 2022-May-07 00:00:00.0000, 9.861945203153085E+06, 4.151139904853002E+08, -2.650376715661287E+05,
2459713.500000000, A.D. 2022-May-14 00:00:00.0000, -1.405839936256343E+06, 4.167781141794140E+08, -3.176813687572777E+05,
2459720.500000000, A.D. 2022-May-21 00:00:00.0000, -1.267273715001615E+07, 4.181627911943778E+08, -3.701108171716034E+05,
2459727.500000000, A.D. 2022-May-28 00:00:00.0000, -2.393129061018600E+07, 4.192702451584796E+08, -4.222934874381423E+05,
2459734.500000000, A.D. 2022-Jun-04 00:00:00.0000, -3.517421949998466E+07, 4.201029009127619E+08, -4.741978367317617E+05,
2459741.500000000, A.D. 2022-Jun-11 00:00:00.0000, -4.639442216140924E+07, 4.206633730078386E+08, -5.257933115479052E+05,
2459748.500000000, A.D. 2022-Jun-18 00:00:00.0000, -5.758497955707240E+07, 4.209544542690382E+08, -5.770503514438272E+05,
2459755.500000000, A.D. 2022-Jun-25 00:00:00.0000, -6.873915805142672E+07, 4.209791044354493E+08, -6.279403992524445E+05,
2459762.500000000, A.D. 2022-Jul-02 00:00:00.0000, -7.985041141327178E+07, 4.207404388416535E+08, -6.784359354996979E+05,
2459769.500000000, A.D. 2022-Jul-09 00:00:00.0000, -9.091238168636474E+07, 4.202417173497202E+08, -7.285105583899915E+05,
2459776.500000000, A.D. 2022-Jul-16 00:00:00.0000, -1.019188990212709E+08, 4.194863346420221E+08, -7.781390158943534E+05,
2459783.500000000, A.D. 2022-Jul-23 00:00:00.0000, -1.128639827036265E+08, 4.184778119775356E+08, -8.272969821880162E+05,
2459790.500000000, A.D. 2022-Jul-30 00:00:00.0000, -1.237418433296863E+08, 4.172197870752019E+08, -8.759608601821959E+05,
2459797.500000000, A.D. 2022-Aug-06 00:00:00.0000, -1.345468825685005E+08, 4.157160027859238E+08, -9.241078869006038E+05,
2459804.500000000, A.D. 2022-Aug-13 00:00:00.0000, -1.452736913711896E+08, 4.139702973235220E+08, -9.717162412630916E+05,
2459811.500000000, A.D. 2022-Aug-20 00:00:00.0000, -1.559170482293491E+08, 4.119865955621697E+08, -1.018765051667780E+06,
2459818.500000000, A.D. 2022-Aug-27 00:00:00.0000, -1.664719174463859E+08, 4.097689006783079E+08, -1.065234368858188E+06,
2459825.500000000, A.D. 2022-Sep-03 00:00:00.0000, -1.769334472063269E+08, 4.073212860279593E+08, -1.111105135612488E+06,
2459832.500000000, A.D. 2022-Sep-10 00:00:00.0000, -1.872969673828243E+08, 4.046478872834238E+08, -1.156359159357518E+06,
2459839.500000000, A.D. 2022-Sep-17 00:00:00.0000, -1.975579870914609E+08, 4.017528948275282E+08, -1.200979090490341E+06,
2459846.500000000, A.D. 2022-Sep-24 00:00:00.0000, -2.077121919557812E+08, 3.986405463545237E+08, -1.244948416269809E+06,
2459853.500000000, A.D. 2022-Oct-01 00:00:00.0000, -2.177554408752880E+08, 3.953151196543208E+08, -1.288251494454324E+06,
2459860.500000000, A.D. 2022-Oct-08 00:00:00.0000, -2.276837619139443E+08, 3.917809260990979E+08, -1.330873621799678E+06,
2459867.500000000, A.D. 2022-Oct-15 00:00:00.0000, -2.374933482654461E+08, 3.880423060269225E+08, -1.372800954456776E+06,
2459874.500000000, A.D. 2022-Oct-22 00:00:00.0000, -2.471805564988280E+08, 3.841036243330452E+08, -1.414020218353033E+06,
2459881.500000000, A.D. 2022-Oct-29 00:00:00.0000, -2.567419046051857E+08, 3.799692636656507E+08, -1.454518650835156E+06,
2459888.500000000, A.D. 2022-Nov-05 00:00:00.0000, -2.661740677664180E+08, 3.756436179553142E+08, -1.494284142184705E+06,
2459895.500000000, A.D. 2022-Nov-12 00:00:00.0000, -2.754738738313360E+08, 3.711310875369304E+08, -1.533305293681338E+06,
2459902.500000000, A.D. 2022-Nov-19 00:00:00.0000, -2.846382992354155E+08, 3.664360749011991E+08, -1.571571404594824E+06,
2459909.500000000, A.D. 2022-Nov-26 00:00:00.0000, -2.936644651171167E+08, 3.615629806676052E+08, -1.609072444787338E+06,
2459916.500000000, A.D. 2022-Dec-03 00:00:00.0000, -3.025496334791172E+08, 3.565161997562269E+08, -1.645799029200271E+06,
2459923.500000000, A.D. 2022-Dec-10 00:00:00.0000, -3.112912033622683E+08, 3.513001177660097E+08, -1.681742396953985E+06,
2459930.500000000, A.D. 2022-Dec-17 00:00:00.0000, -3.198867070197040E+08, 3.459191075235034E+08, -1.716894399419516E+06,
2459937.500000000, A.D. 2022-Dec-24 00:00:00.0000, -3.283338059926671E+08, 3.403775257251962E+08, -1.751247512687117E+06,
2459944.500000000, A.D. 2022-Dec-31 00:00:00.0000, -3.366302867402436E+08, 3.346797097698678E+08, -1.784794898423940E+06,
2459951.500000000, A.D. 2023-Jan-07 00:00:00.0000, -3.447740557093447E+08, 3.288299757322752E+08, -1.817530445694163E+06,
2459958.500000000, A.D. 2023-Jan-14 00:00:00.0000, -3.527631358207837E+08, 3.228326179647727E+08, -1.849448572772145E+06,
2459965.500000000, A.D. 2023-Jan-21 00:00:00.0000, -3.605956650231405E+08, 3.166919071451885E+08, -1.880543989156887E+06,
2459972.500000000, A.D. 2023-Jan-28 00:00:00.0000, -3.682698932501230E+08, 3.104120865644655E+08, -1.910811769967809E+06,
2459979.500000000, A.D. 2023-Feb-04 00:00:00.0000, -3.757841779948140E+08, 3.039973696695561E+08, -1.940247475938737E+06,
2459986.500000000, A.D. 2023-Feb-11 00:00:00.0000, -3.831369803018525E+08, 2.974519386582788E+08, -1.968847170226946E+06,
2459993.500000000, A.D. 2023-Feb-18 00:00:00.0000, -3.903268612446253E+08, 2.907799432939234E+08, -1.996607393487409E+06,
2460000.500000000, A.D. 2023-Feb-25 00:00:00.0000, -3.973524786274537E+08, 2.839854997681408E+08, -2.023525134377584E+06,
2460007.500000000, A.D. 2023-Mar-04 00:00:00.0000, -4.042125838133550E+08, 2.770726896214010E+08, -2.049597803143576E+06,
2460014.500000000, A.D. 2023-Mar-11 00:00:00.0000, -4.109060186514860E+08, 2.700455587126902E+08, -2.074823210682616E+06,
2460021.500000000, A.D. 2023-Mar-18 00:00:00.0000, -4.174317124596111E+08, 2.629081161808847E+08, -2.099199561246410E+06,
2460028.500000000, A.D. 2023-Mar-25 00:00:00.0000, -4.237886788601515E+08, 2.556643333431112E+08, -2.122725481081188E+06,
2460035.500000000, A.D. 2023-Apr-01 00:00:00.0000, -4.299760120465415E+08, 2.483181429163723E+08, -2.145400089580551E+06,
2460042.500000000, A.D. 2023-Apr-08 00:00:00.0000, -4.359928830962739E+08, 2.408734397805209E+08, -2.167222956230491E+06,
2460049.500000000, A.D. 2023-Apr-15 00:00:00.0000, -4.418385386689408E+08, 2.333340821704242E+08, -2.188193819341451E+06,
2460056.500000000, A.D. 2023-Apr-22 00:00:00.0000, -4.475123002798303E+08, 2.257038902404938E+08, -2.208312481872991E+06,
2460063.500000000, A.D. 2023-Apr-29 00:00:00.0000, -4.530135614109945E+08, 2.179866442481411E+08, -2.227578950849622E+06,
2460070.500000000, A.D. 2023-May-06 00:00:00.0000, -4.583417842179220E+08, 2.101860841296465E+08, -2.245993513232961E+06,
2460077.500000000, A.D. 2023-May-13 00:00:00.0000, -4.634964968080003E+08, 2.023059095683227E+08, -2.263556731794521E+06,
2460084.500000000, A.D. 2023-May-20 00:00:00.0000, -4.684772908558230E+08, 1.943497800578625E+08, -2.280269422748491E+06,
2460091.500000000, A.D. 2023-May-27 00:00:00.0000, -4.732838193613189E+08, 1.863213149255692E+08, -2.296132635498352E+06,
2460098.500000000, A.D. 2023-Jun-03 00:00:00.0000, -4.779157944930833E+08, 1.782240933363490E+08, -2.311147637961954E+06,
2460105.500000000, A.D. 2023-Jun-10 00:00:00.0000, -4.823729854930055E+08, 1.700616542595541E+08, -2.325315911139339E+06,
2460112.500000000, A.D. 2023-Jun-17 00:00:00.0000, -4.866552165523898E+08, 1.618374963349729E+08, -2.338639166329160E+06,
2460119.500000000, A.D. 2023-Jun-24 00:00:00.0000, -4.907623643380854E+08, 1.535550776900717E+08, -2.351119410056688E+06,
2460126.500000000, A.D. 2023-Jul-01 00:00:00.0000, -4.946943549134991E+08, 1.452178165328544E+08, -2.362759012437947E+06,
2460133.500000000, A.D. 2023-Jul-08 00:00:00.0000, -4.984511617267501E+08, 1.368290933384367E+08, -2.373560558420539E+06,
2460140.500000000, A.D. 2023-Jul-15 00:00:00.0000, -5.020328059419324E+08, 1.283922517961610E+08, -2.383526596241467E+06,
2460147.500000000, A.D. 2023-Jul-22 00:00:00.0000, -5.054393555904607E+08, 1.199105974804604E+08, -2.392659690685235E+06,
$$EOE